STARLINK-32212          
1 60256U 24131B   26068.35522221 -.00002344  00000+0 -67032-4 0  9990
2 60256  53.1616  54.2633 0001509  79.1336 280.9835 15.30199835 91661
COSMOS 2588             
1 64095U 25109A   26068.81179522  .00009169  00000+0  32611-3 0  9998
2 64095  72.9704  73.5401 0005019 308.6780  51.3966 15.29122656 44425
